CCSDS_OEM_VERS = 2.0  
CREATION_DATE  = 2026-03-24T10:38:21
ORIGINATOR     = ESOC/OPS-GFA                            
 
 



META_START
OBJECT_NAME          = LISA                                    
OBJECT_ID            = -1000                                   
CENTER_NAME          = SUN                     
REF_FRAME            = EME2000 
TIME_SYSTEM          = TCB
START_TIME           = 2036-12-23T00:00:30.346418            
STOP_TIME            = 2047-09-09T07:52:29.154762            
INTERPOLATION        = HERMITE                                 
INTERPOLATION_DEGREE = 7                                       
META_STOP

2042-12-31T12:42:17.165684     3.02889781601573862e+07    1.34429745394174308e+08    5.73114629895591438e+07   -2.92701477120243680e+01    5.54380822060575085e+00    2.21317049551930989e+00   -1.20935962747650918e-06   -5.36695475064339775e-06   -2.28809441939287880e-06
2043-01-01T09:03:53.042857     2.81404251068532355e+07    1.34821652414094001e+08    5.74675271726936996e+07   -2.93556526170420291e+01    5.14982406283919580e+00    2.04521930430392906e+00   -1.12373786035654692e-06   -5.38336543900739850e-06   -2.29465094562084938e-06
2043-01-02T05:25:28.920030     2.59858351322184205e+07    1.35184639008550406e+08    5.76112640705604255e+07   -2.94348718725065552e+01    4.75467965905181167e+00    1.87680570610764175e+00   -1.03784835891644022e-06   -5.39861330649501120e-06   -2.30071168622483355e-06
2043-01-03T01:47:04.797203     2.38256696616558284e+07    1.35518623199990094e+08    5.77426410969037637e+07   -2.95077865468122340e+01    4.35846038752187415e+00    1.70796609966758339e+00   -9.51710023892114444e-07   -5.41269434771239939e-06   -2.30627503000776316e-06
2043-01-03T22:08:40.674376     2.16603914562834315e+07    1.35823529277735114e+08    5.78616283369209468e+07   -2.95743790963345674e+01    3.96125191123432163e+00    1.53873699801479047e+00   -8.65341826413796874e-07   -5.42560479627500133e-06   -2.31133946815148403e-06
2043-01-04T18:30:16.551550     1.94904645019387081e+07    1.36099287871353567e+08    5.79681985779359788e+07   -2.96346333702462879e+01    3.56314016109758391e+00    1.36915502128422162e+00   -7.78762798493380497e-07   -5.43734110400751534e-06   -2.31590358533154046e-06
2043-01-05T14:51:52.428722     1.73163538926155940e+07    1.36345836054725707e+08    5.80623273531061560e+07   -2.96885346146033378e+01    3.16421132085563883e+00    1.19925689024943205e+00   -6.91992022584445395e-07   -5.44789991539288414e-06   -2.31996604878993181e-06
2043-01-06T11:05:59.750183     1.51518640018304922e+07    1.36561876560581774e+08    5.81435310309662819e+07   -2.97357979620214827e+01    2.76699967541510450e+00    1.03012163841409299e+00   -6.05581309475864735e-07   -5.45722485766690958e-06   -2.32350560649370340e-06
2043-01-07T07:20:07.071642     1.29841605188965406e+07    1.36748957568665653e+08    5.82124047138207704e+07   -2.97767608858753938e+01    2.36915128197303826e+00    8.60746660206697545e-01   -5.19019048229486728e-07   -5.46538123464388450e-06   -2.32654750797980763e-06
2043-01-08T03:34:14.393102     1.08137027813650668e+07    1.36907035825059712e+08    5.82689322716502622e+07   -2.98114130353135138e+01    1.97075135129926160e+00    6.91168240800440925e-01   -4.32324164585442399e-07   -5.47236677500579601e-06   -2.32909088175851178e-06
2043-01-08T23:48:21.714562     8.64095085698279738e+06    1.37036074230149746e+08    5.83131001950354055e+07   -2.98397454400304092e+01    1.57188525214368635e+00    5.21422725659435593e-01   -3.45515634315239330e-07   -5.47817941716662123e-06   -2.33113494590083948e-06
2043-01-09T20:02:29.036022     6.46636542113345489e+06    1.37136041900866181e+08    5.83448976210037917e+07   -2.98617505137037043e+01    1.17263849507186801e+00    3.51546513641301517e-01   -2.58612477532225367e-07   -5.48281733274737870e-06   -2.33267901792341767e-06
2043-01-10T16:16:36.357482     4.29040764438996650e+06    1.37206914207185805e+08    5.83643163479859084e+07   -2.98774220570237823e+01    7.73096714757774528e-01    1.81576049450387078e-01   -1.71633753224124009e-07   -5.48627894555995364e-06   -2.33372252277521933e-06
2043-01-11T12:30:43.678942     2.11353908790687099e+06    1.37248672788227409e+08    5.83713508421360925e+07   -2.98867552603332243e+01    3.73345651057054528e-01    1.15478155782602343e-02   -8.45985540062998196e-08   -5.48856294610557112e-06   -2.33426499892845199e-06
2043-01-12T08:44:51.000402    -6.37783955971263349e+04    1.37261305553272218e+08    5.83659982372731641e+07   -2.98897467058920974e+01   -2.65288708121893535e-02   -1.58501676130339053e-01    2.47399890452905994e-09   -5.48966830157745987e-06   -2.33430610256937781e-06
2043-01-13T04:58:58.321862    -2.24108275751660764e+06    1.37244806673038214e+08    5.83482583306952193e+07   -2.98863943697851084e+01   -4.26440960654143719e-01   -3.28535893147868574e-01    8.95647604954619016e-08   -5.48959426138704849e-06   -2.33384560989712707e-06
2043-01-14T01:13:05.643321    -4.41791184794718027e+06    1.37199176566539168e+08    5.83181335771230608e+07   -2.98766976234867343e+01   -8.26304683918515082e-01   -4.98518291032476579e-01    1.76654566542891530e-07   -5.48834035818095896e-06   -2.33288341751661855e-06
2043-01-14T21:27:12.964782    -6.59380351143331081e+06    1.37124421888858080e+08    5.82756290830268562e+07   -2.98606572351004012e+01   -1.22603408223531751e+00   -6.68412322156417771e-01    2.63724237976661969e-07   -5.48590640439598643e-06   -2.33141954094568854e-06
2043-01-15T17:41:20.286241    -8.76829568612678722e+06    1.37020555525164932e+08    5.82207526035905331e+07   -2.98382753702877537e+01   -1.62554319353414733e+00   -8.38181444256173247e-01    3.50754585022767025e-07   -5.48229248430652371e-06   -2.32945411121723004e-06
2043-01-16T13:55:27.607702    -1.09409265086056143e+07    1.36887596596308947e+08    5.81535145445683673e+07   -2.98095555929041325e+01   -2.02474607142098950e+00   -1.00778912866609449e+00    4.37726411126689282e-07   -5.47749894158476353e-06   -2.32698736958431821e-06
2043-01-17T10:09:34.929161    -1.31112344266035035e+07    1.36725570481315494e+08    5.80739279712883756e+07   -2.97745028653562898e+01   -2.42355680348556213e+00   -1.17719886809731822e+00    5.24620516658157320e-07   -5.47152636237218009e-06   -2.32401966032875367e-06
2043-01-18T06:23:42.250622    -1.52787583219004497e+07    1.36534508862117231e+08    5.79820086270570457e+07   -2.97331235486984404e+01   -2.82188952821223982e+00   -1.34637418382382812e+00    6.11417702387472820e-07   -5.46437555389474153e-06   -2.32055142168593462e-06
2043-01-19T02:37:49.572081    -1.74430376456239522e+07    1.36314449795850128e+08    5.78777749632197917e+07   -2.96854254024827178e+01   -3.21965845016740904e+00   -1.51527863213736502e+00    6.98098772756233057e-07   -5.45604751847997857e-06   -2.31658317482590131e-06
2043-01-19T22:43:35.822163    -1.95887648721944243e+07    1.36067249113913774e+08    5.77620915138752460e+07   -2.96318105970579673e+01   -3.61404874875528659e+00   -1.68271727539679672e+00    7.84049780976918123e-07   -5.44661343874079502e-06   -2.31214821239498527e-06
2043-01-20T18:49:22.072246    -2.17303884695451707e+07    1.35791541486912578e+08    5.76343065481065735e+07   -2.95719829520226831e+01   -4.00771462998426209e+00   -1.84981727686923203e+00    8.69848569258942651e-07   -5.43602144011959087e-06   -2.30722163000764322e-06
2043-01-21T14:55:08.322327    -2.38674593990780897e+07    1.35487382375798911e+08    5.74944458610259369e+07   -2.95059541569712778e+01   -4.40057239432036518e+00   -2.01654310346043708e+00    9.55476421048861219e-07   -5.42427353423093402e-06   -2.30180437535081015e-06
2043-01-22T11:00:54.572410    -2.59995294784360938e+07    1.35154833241766512e+08    5.73425377949462831e+07   -2.94337372553122627e+01   -4.79253849534794174e+00   -2.18285929386041300e+00    1.04091462907612865e-06   -5.41137194637050414e-06   -2.29589748688395501e-06
2043-01-23T07:06:40.822492    -2.81261515118263699e+07    1.34793961578062624e+08    5.71786132522669807e+07   -2.93553466431498720e+01   -5.18352955602160748e+00   -2.34873046544572084e+00    1.12614450745994936e-06   -5.39731913661329499e-06   -2.28950210275933037e-06
2043-01-24T03:12:27.072575    -3.02468794048350491e+07    1.34404840919793963e+08    5.70027056990782246e+07   -2.92707980673424011e+01   -5.57346238628508139e+00   -2.51412132175957481e+00    1.21114740236579598e-06   -5.38211781660746316e-06   -2.28261946791815996e-06
2043-01-24T23:18:13.322656    -3.23612682670994774e+07    1.33987550836248070e+08    5.68148511613902301e+07   -2.91801086228419173e+01   -5.96225400174949094e+00   -2.67899666043940332e+00    1.29590470121446108e-06   -5.36577096207078554e-06   -2.27525093936553544e-06
2043-01-25T19:23:59.572738    -3.44688745061838031e+07    1.33542176910251305e+08    5.66150882158933580e+07   -2.90832967494201817e+01   -6.34982164311995945e+00   -2.84332138146001068e+00    1.38039784044133355e-06   -5.34828182097787647e-06   -2.26739798961906112e-06
2043-01-26T15:29:45.822821    -3.65692559160036147e+07    1.33068810709085137e+08    5.64034579771555066e+07   -2.89803822278855421e+01   -6.73608279605925375e+00   -3.00706049556043720e+00    1.46460831180996308e-06   -5.32965391745893812e-06   -2.25906220834003018e-06
2043-01-27T11:35:32.072903    -3.86619717631451711e+07    1.32567549751482114e+08    5.61800040831628740e+07   -2.88713861758955161e+01   -7.12095521117733110e+00   -3.17017913272265073e+00    1.54851766727317650e-06   -5.30989105137618132e-06   -2.25024530213284725e-06
2043-01-28T07:41:18.322985    -4.07465828744250834e+07    1.32038497475223079e+08    5.59447726811103225e+07   -2.87563310434699524e+01   -7.50435692383556496e+00   -3.33264255057016845e+00    1.63210752239200196e-06   -5.28899729362520594e-06   -2.24094909253267340e-06
